NORAD_CAT_ID,OBJECT_NAME,OBJECT_TYPE,EPOCH,MEAN_MOTION,ECCENTRICITY,INCLINATION,RA_OF_ASC_NODE,ARG_OF_PERICENTER,MEAN_ANOMALY,BSTAR,MEAN_MOTION_DOT,MEAN_MOTION_DDOT,TLE_LINE0,TLE_LINE1,TLE_LINE2,SEMIMAJOR_AXIS,PERIOD,APOGEE,PERIGEE,DECAYED
53741.0,STARLINK-4614,PAYLOAD,2024-05-22 21:11:12,15.08842974,0.0001405,53.2167,312.9229,85.3731,274.7422,0.00010194,1.335e-05,0.0,0 STARLINK-4614,1 53741U 22107AT  24143.88278742  .00001335  00000-0  10194-3 0  9992,2 53741  53.2167 312.9229 0001405  85.3731 274.7422 15.08842974 95023,6917.871,95.437,540.708,538.764,0.0
53741.0,STARLINK-4614,PAYLOAD,2024-05-23 14:40:27,15.08837824,0.0001303,53.2171,309.653,86.9594,273.1548,4.019e-05,3.52e-06,0.0,0 STARLINK-4614,1 53741U 22107AT  24144.61142939  .00000352  00000-0  40190-4 0  9990,2 53741  53.2171 309.6530 0001303  86.9594 273.1548 15.08837824 95915,6917.887,95.438,540.653,538.851,0.0
53741.0,STARLINK-4614,PAYLOAD,2024-05-23 16:15:50,15.08837621,0.0001291,53.2171,309.3556,87.6256,272.4884,3.1536e-05,2.14e-06,0.0,0 STARLINK-4614,1 53741U 22107AT  24144.67766939  .00000214  00000-0  31536-4 0  9999,2 53741  53.2171 309.3556 0001291  87.6256 272.4884 15.08837621 95144,6917.888,95.438,540.646,538.86,0.0
53741.0,STARLINK-4614,PAYLOAD,2024-05-24 14:31:14,15.08834413,0.0001241,53.2178,305.1934,99.3936,260.7197,9.2143e-05,1.179e-05,0.0,0 STARLINK-4614,1 53741U 22107AT  24145.60503182  .00001179  00000-0  92143-4 0  9994,2 53741  53.2178 305.1934 0001241  99.3936 260.7197 15.08834413 96060,6917.897,95.438,540.621,538.904,0.0
53741.0,STARLINK-4614,PAYLOAD,2024-05-24 20:52:47,15.08837102,0.000121,53.2171,304.003,98.9976,261.1153,9.5407e-05,1.231e-05,0.0,0 STARLINK-4614,1 53741U 22107AT  24145.86999039  .00001231  00000-0  95407-4 0  9997,2 53741  53.2171 304.0030 0001210  98.9976 261.1153 15.08837102 95326,6917.889,95.438,540.591,538.917,0.0
53741.0,STARLINK-4614,PAYLOAD,2024-05-25 14:22:02,15.08834673,0.0001197,53.2169,300.7296,90.4001,269.7128,6.0216e-05,6.7e-06,0.0,0 STARLINK-4614,1 53741U 22107AT  24146.59863514  .00000670  00000-0  60216-4 0  9992,2 53741  53.2169 300.7296 0001197  90.4001 269.7128 15.08834673 96215,6917.897,95.438,540.59,538.934,0.0
53741.0,STARLINK-4614,PAYLOAD,2024-05-26 04:40:29,15.08842502,0.0001281,53.2165,298.056,84.5099,275.6039,0.00014429,2.009e-05,0.0,0 STARLINK-4614,1 53741U 22107AT  24147.19478996  .00002009  00000-0  14429-3 0  9997,2 53741  53.2165 298.0560 0001281  84.5099 275.6039 15.08842502 95529,6917.873,95.437,540.624,538.852,0.0
53741.0,STARLINK-4614,PAYLOAD,2024-05-26 12:37:26,15.08835591,0.000122,53.217,296.5674,90.0423,270.0709,6.6085e-05,7.64e-06,0.0,0 STARLINK-4614,1 53741U 22107AT  24147.52599660  .00000764  00000-0  66085-4 0  9998,2 53741  53.2170 296.5674 0001220  90.0423 270.0709 15.08835591 95578,6917.894,95.438,540.603,538.915,0.0
53741.0,STARLINK-4614,PAYLOAD,2024-05-26 14:12:49,15.08835599,0.0001201,53.217,296.2704,92.668,267.445,7.285e-05,8.72e-06,0.0,0 STARLINK-4614,1 53741U 22107AT  24147.59223671  .00000872  00000-0  72850-4 0  9998,2 53741  53.2170 296.2704 0001201  92.6680 267.4450 15.08835599 96360,6917.894,95.438,540.59,538.928,0.0
53741.0,STARLINK-4614,PAYLOAD,2024-05-26 22:09:44,15.08838004,0.0001201,53.217,294.7837,87.8589,272.2541,8.4692e-05,1.06e-05,0.0,0 STARLINK-4614,1 53741U 22107AT  24147.92343564  .00001060  00000-0  84692-4 0  9996,2 53741  53.2170 294.7837 0001201  87.8589 272.2541 15.08838004 96419,6917.886,95.438,540.582,538.921,0.0
53741.0,STARLINK-4614,PAYLOAD,2024-05-27 14:03:36,15.08840147,0.0001178,53.217,291.81,86.1511,273.9616,0.00010509,1.385e-05,0.0,0 STARLINK-4614,1 53741U 22107AT  24148.58583457  .00001385  00000-0  10509-3 0  9991,2 53741  53.2170 291.8100 0001178  86.1511 273.9616 15.08840147 96513,6917.88,95.438,540.56,538.93,0.0
53741.0,STARLINK-4614,PAYLOAD,2024-05-27 20:25:08,15.0884304,0.000121,53.217,290.6206,85.4263,274.6867,0.00013024,1.786e-05,0.0,0 STARLINK-4614,1 53741U 22107AT  24148.85079267  .00001786  00000-0  13024-3 0  9990,2 53741  53.2170 290.6206 0001210  85.4263 274.6867 15.08843040 95778,6917.871,95.437,540.573,538.899,0.0
53741.0,STARLINK-4614,PAYLOAD,2024-05-27 22:00:31,15.08843091,0.0001209,53.217,290.3232,85.4921,274.6209,0.00013003,1.782e-05,0.0,0 STARLINK-4614,1 53741U 22107AT  24148.91703268  .00001782  00000-0  13003-3 0  9995,2 53741  53.2170 290.3232 0001209  85.4921 274.6209 15.08843091 96567,6917.871,95.437,540.572,538.9,0.0
53741.0,STARLINK-4614,PAYLOAD,2024-05-28 13:54:23,15.08840581,0.0001202,53.2169,287.3494,86.329,273.784,9.3949e-05,1.208e-05,0.0,0 STARLINK-4614,1 53741U 22107AT  24149.57943493  .00001208  00000-0  93949-4 0  9995,2 53741  53.2169 287.3494 0001202  86.3290 273.7840 15.08840581 96666,6917.879,95.438,540.575,538.912,0.0
53741.0,STARLINK-4614,PAYLOAD,2024-05-28 21:51:18,15.08843237,0.0001201,53.2169,285.8623,86.5686,273.5444,9.8951e-05,1.287e-05,0.0,0 STARLINK-4614,1 53741U 22107AT  24149.91063256  .00001287  00000-0  98951-4 0  9998,2 53741  53.2169 285.8623 0001201  86.5686 273.5444 15.08843237 96718,6917.87,95.437,540.566,538.905,0.0
53741.0,STARLINK-4614,PAYLOAD,2024-05-29 04:12:51,15.08841692,0.0001191,53.2168,284.6728,87.909,272.2039,6.3283e-05,7.19e-06,0.0,0 STARLINK-4614,1 53741U 22107AT  24150.17559373  .00000719  00000-0  63283-4 0  9997,2 53741  53.2168 284.6728 0001191  87.9090 272.2039 15.08841692 95978,6917.875,95.437,540.564,538.916,0.0
53741.0,STARLINK-4614,PAYLOAD,2024-05-29 13:45:10,15.08840937,0.0001198,53.2168,282.8886,86.9572,273.1557,3.5918e-05,2.84e-06,0.0,0 STARLINK-4614,1 53741U 22107AT  24150.57303431  .00000284  00000-0  35918-4 0  9994,2 53741  53.2168 282.8886 0001198  86.9572 273.1557 15.08840937 96814,6917.878,95.437,540.571,538.914,0.0
53741.0,STARLINK-4614,PAYLOAD,2024-05-29 20:06:42,15.08842957,0.0001198,53.2168,281.6992,86.4879,273.6251,3.8038e-05,3.18e-06,0.0,0 STARLINK-4614,1 53741U 22107AT  24150.83799274  .00000318  00000-0  38038-4 0  9991,2 53741  53.2168 281.6992 0001198  86.4879 273.6251 15.08842957 96858,6917.871,95.437,540.565,538.908,0.0
53741.0,STARLINK-4614,PAYLOAD,2024-05-30 13:35:57,15.08839534,0.0001195,53.2168,278.4283,86.7301,273.3827,4.4321e-05,4.18e-06,0.0,0 STARLINK-4614,1 53741U 22107AT  24151.56663401  .00000418  00000-0  44321-4 0  9997,2 53741  53.2168 278.4283 0001195  86.7301 273.3827 15.08839534 96184,6917.882,95.438,540.574,538.92,0.0
53741.0,STARLINK-4614,PAYLOAD,2024-05-30 19:57:29,15.08842036,0.0001194,53.2168,277.2387,86.6803,273.4326,5.0838e-05,5.21e-06,0.0,0 STARLINK-4614,1 53741U 22107AT  24151.83159195  .00000521  00000-0  50838-4 0  9992,2 53741  53.2168 277.2387 0001194  86.6803 273.4326 15.08842036 97009,6917.874,95.437,540.565,538.913,0.0
53741.0,STARLINK-4614,PAYLOAD,2024-05-31 13:26:44,15.08836639,0.0001191,53.2167,273.9679,86.7609,273.352,3.4061e-05,2.54e-06,0.0,0 STARLINK-4614,1 53741U 22107AT  24152.56023590  .00000254  00000-0  34061-4 0  9995,2 53741  53.2167 273.9679 0001191  86.7609 273.3520 15.08836639 97116,6917.891,95.438,540.58,538.932,0.0
53741.0,STARLINK-4614,PAYLOAD,2024-05-31 19:48:16,15.08837717,0.0001197,53.2167,272.7782,86.7204,273.3925,3.3514e-05,2.46e-06,0.0,0 STARLINK-4614,1 53741U 22107AT  24152.82519521  .00000246  00000-0  33514-4 0  9991,2 53741  53.2167 272.7782 0001197  86.7204 273.3925 15.08837717 96379,6917.887,95.438,540.58,538.924,0.0
53741.0,STARLINK-4614,PAYLOAD,2024-06-01 13:17:31,15.08831638,0.0001201,53.2166,269.5074,87.4371,272.6759,-6.4382e-06,-3.9e-06,0.0,0 STARLINK-4614,1 53741U 22107AT  24153.55384204 -.00000390  00000-0 -64382-5 0  9990,2 53741  53.2166 269.5074 0001201  87.4371 272.6759 15.08831638 96480,6917.906,95.438,540.602,538.94,0.0
53741.0,STARLINK-4614,PAYLOAD,2024-06-01 14:52:55,15.08832483,0.0001216,53.2166,269.2104,88.1316,271.9816,5.9523e-07,-2.78e-06,0.0,0 STARLINK-4614,1 53741U 22107AT  24153.62008156 -.00000278  00000-0  59523-6 0  9993,2 53741  53.2166 269.2104 0001216  88.1316 271.9816 15.08832483 97277,6917.903,95.438,540.61,538.927,0.0
53741.0,STARLINK-4614,PAYLOAD,2024-06-02 11:32:55,15.08833713,0.0001224,53.2165,265.3448,89.7009,270.4123,3.8927e-05,3.32e-06,0.0,0 STARLINK-4614,1 53741U 22107AT  24154.48120219  .00000332  00000-0  38927-4 0  9996,2 53741  53.2165 265.3448 0001224  89.7009 270.4123 15.08833713 97406,6917.9,95.438,540.611,538.918,0.0
53741.0,STARLINK-4614,PAYLOAD,2024-06-03 00:16:00,15.08837716,0.0001235,53.2165,262.9661,88.9843,271.1291,3.6557e-05,2.94e-06,0.0,0 STARLINK-4614,1 53741U 22107AT  24155.01112105  .00000294  00000-0  36557-4 0  9995,2 53741  53.2165 262.9661 0001235  88.9843 271.1291 15.08837716 96708,6917.887,95.438,540.607,538.898,0.0
53741.0,STARLINK-4614,PAYLOAD,2024-06-03 11:23:42,15.08835974,0.000123,53.2166,260.8842,87.2082,272.9051,8.1327e-05,1.007e-05,0.0,0 STARLINK-4614,1 53741U 22107AT  24155.47480197  .00001007  00000-0  81327-4 0  9992,2 53741  53.2166 260.8842 0001230  87.2082 272.9051 15.08835974 97550,6917.893,95.438,540.609,538.907,0.0
53741.0,STARLINK-4614,PAYLOAD,2024-06-03 16:09:52,15.08837293,0.0001234,53.2166,259.9921,86.4309,273.6825,7.6307e-05,9.27e-06,0.0,0 STARLINK-4614,1 53741U 22107AT  24155.67352176  .00000927  00000-0  76307-4 0  9991,2 53741  53.2166 259.9921 0001234  86.4309 273.6825 15.08837293 97580,6917.889,95.438,540.607,538.9,0.0
53741.0,STARLINK-4614,PAYLOAD,2024-06-04 12:49:53,15.08839744,0.0001288,53.2151,256.1258,86.445,273.6689,4.9126e-05,4.94e-06,0.0,0 STARLINK-4614,1 53741U 22107AT  24156.53464139  .00000494  00000-0  49126-4 0  9998,2 53741  53.2151 256.1258 0001288  86.4450 273.6689 15.08839744 96931,6917.881,95.438,540.637,538.855,0.0
53741.0,STARLINK-4614,PAYLOAD,2024-06-05 12:40:40,15.08840259,0.0001345,53.2148,251.6653,87.2229,272.8917,1.5867e-05,-3.5e-07,0.0,0 STARLINK-4614,1 53741U 22107AT  24157.52824098 -.00000035  00000-0  15867-4 0  9999,2 53741  53.2148 251.6653 0001345  87.2229 272.8917 15.08840259 97864,6917.88,95.438,540.675,538.814,0.0
